HST                     
1 20580U 90037B   26068.15977042  .00009063  00000+0  30023-3 0  9999
2 20580  28.4717  43.6133 0001837 120.9992 239.0785 15.29473555773239
STARLINK-34289          
1 64225U 25117Y   26068.35145750  .00018785  00000+0  64477-3 0  9996
2 64225  53.1597  41.1902 0001118  88.7771 271.3357 15.30200079 44505
